[{"OBJECT_NAME":"STARLINK-31948","OBJECT_ID":"2024-106V","EPOCH":"2026-03-09T01:33:20.364192","MEAN_MOTION":15.27573686,"ECCENTRICITY":0.00017313,"INCLINATION":42.9926,"RA_OF_ASC_NODE":332.811,"ARG_OF_PERICENTER":11.3368,"MEAN_ANOMALY":348.7522,"EPHEMERIS_TYPE":0,"CLASSIFICATION_TYPE":"U","NORAD_CAT_ID":59941,"ELEMENT_SET_NO":999,"REV_AT_EPOCH":10046,"BSTAR":4.4005268e-5,"MEAN_MOTION_DOT":9.49e-6,"MEAN_MOTION_DDOT":0},{"OBJECT_NAME":"BANDWAGON-4 OBJECT P","OBJECT_ID":"2025-248P","EPOCH":"2026-03-08T23:32:23.805312","MEAN_MOTION":15.24098352,"ECCENTRICITY":0.00120788,"INCLINATION":45.4037,"RA_OF_ASC_NODE":295.4322,"ARG_OF_PERICENTER":209.3167,"MEAN_ANOMALY":150.7044,"EPHEMERIS_TYPE":0,"CLASSIFICATION_TYPE":"U","NORAD_CAT_ID":66306,"ELEMENT_SET_NO":999,"REV_AT_EPOCH":1929,"BSTAR":0.00092291021,"MEAN_MOTION_DOT":0.00022647,"MEAN_MOTION_DDOT":0}]
